H1 CPF 01  gfz 2021 08 11 12  7232 terrasarx 
H2 0702601  6201 31698    2021 08 11 12 59 42 2021 08 16 00 00 42   120 1 1  0 0 0
H9
10 0 59440  69102.000000  0    1542003.240    432268.733  -6706566.819
10 0 59440  69222.000000  0    2372317.367    116976.026  -6473036.893
10 0 59440  69342.000000  0    3155867.132   -214464.741  -6126547.323
10 0 59440  69462.000000  0    3878814.303   -555368.884  -5673071.858
10 0 59440  69582.000000  0    4528461.715   -898645.504  -5120444.118
10 0 59440  69702.000000  0    5093479.971  -1236939.891  -4478234.946
10 0 59440  69822.000000  0    5564112.457  -1562786.133  -3757597.331
10 0 59440  69942.000000  0    5932353.518  -1868766.490  -2971081.750
10 0 59440  70062.000000  0    6192096.141  -2147674.797  -2132423.678
10 0 59440  70182.000000  0    6339244.629  -2392680.104  -1256306.016
10 0 59440  70302.000000  0    6371789.078  -2597485.961   -358101.080
10 0 59440  70422.000000  0    6289839.450  -2756481.910    546403.529
10 0 59440  70542.000000  0    6095617.532  -2864882.643   1441289.533
10 0 59440  70662.000000  0    5793406.029  -2918851.289   2310797.749
10 0 59440  70782.000000  0    5389454.715  -2915603.652   3139614.346
10 0 59440  70902.000000  0    4891847.768  -2853489.911   3913148.460
10 0 59440  71022.000000  0    4310335.574  -2732051.639   4617792.887
10 0 59440  71142.000000  0    3656137.757  -2552055.196   5241165.992
10 0 59440  71262.000000  0    2941717.573  -2315499.170   5772329.727
10 0 59440  71382.000000  0    2180536.762  -2025595.042   6201977.326
10 0 59440  71502.000000  0    1386796.538  -1686723.590   6522591.020
10 0 59440  71622.000000  0     575168.902  -1304367.525   6728567.677
10 0 59440  71742.000000  0    -239476.526   -885021.277   6816310.712
10 0 59440  71862.000000  0   -1042344.560   -436079.657   6784288.132
10 0 59440  71982.000000  0   -1818981.774     34292.289   6633057.328
10 0 59440  72102.000000  0   -2555535.520    517307.327   6365256.128
10 0 59440  72222.000000  0   -3239000.835   1003719.254   5985560.222
10 0 59440  72342.000000  0   -3857451.848   1483998.673   5500607.207
10 0 59440  72462.000000  0   -4400254.511   1948518.824   4918887.314
10 0 59440  72582.000000  0   -4858256.442   2387748.527   4250600.543
10 0 59440  72702.000000  0   -5223948.331   2792448.447   3507481.393
10 0 59440  72822.000000  0   -5491594.152   3153865.486   2702594.941
10 0 59440  72942.000000  0   -5657327.866   3463921.917   1850107.411
10 0 59440  73062.000000  0   -5719214.352   3715395.409    965033.385
10 0 59440  73182.000000  0   -5677270.051   3902083.248     62963.874
10 0 59440  73302.000000  0   -5533444.319   4018947.060   -840216.072
10 0 59440  73422.000000  0   -5291562.305   4062235.108  -1728616.026
10 0 59440  73542.000000  0   -4957229.351   4029578.476  -2586629.755
10 0 59440  73662.000000  0   -4537698.779   3920057.519  -3399216.334
10 0 59440  73782.000000  0   -4041708.885   3734238.205  -4152167.124
10 0 59440  73902.000000  0   -3479293.942   3474178.482  -4832352.799
10 0 59440  74022.000000  0   -2861574.269   3143404.950  -5427946.820
10 0 59440  74142.000000  0   -2200532.590   2746861.675  -5928622.298
10 0 59440  74262.000000  0   -1508778.533   2290832.166  -6325722.012
10 0 59440  74382.000000  0    -799306.926   1782835.283  -6612396.164
10 0 59440  74502.000000  0     -85256.335   1231499.730  -6783709.080
10 0 59440  74622.000000  0     620329.177    646417.876  -6836714.752
10 0 59440  74742.000000  0    1304732.395     37982.183  -6770503.476
10 0 59440  74862.000000  0    1955787.910   -582795.943  -6586215.290
10 0 59440  74982.000000  0    2562092.774  -1204480.244  -6287021.659
10 0 59440  75102.000000  0    3113203.222  -1815414.984  -5878076.967
10 0 59440  75222.000000  0    3599813.441  -2403938.074  -5366439.370
10 0 59440  75342.000000  0    4013916.306  -2958602.034  -4760961.137
10 0 59440  75462.000000  0    4348939.352  -3468396.988  -4072144.940
10 0 59440  75582.000000  0    4599854.061  -3922969.737  -3311971.728
10 0 59440  75702.000000  0    4763258.552  -4312836.764  -2493700.867
10 0 59440  75822.000000  0    4837429.450  -4629585.629  -1631643.060
10 0 59440  75942.000000  0    4822341.322  -4866060.046   -740910.737
10 0 59440  76062.000000  0    4719651.164  -5016523.344    162850.754
10 0 59440  76182.000000  0    4532648.531  -5076794.700   1063744.423
10 0 59440  76302.000000  0    4266173.032  -5044355.111   1945910.125
10 0 59440  76422.000000  0    3926498.879  -4918419.205   2793812.639
10 0 59440  76542.000000  0    3521192.175  -4699972.893   3592522.758
10 0 59440  76662.000000  0    3058942.980  -4391774.374   4327986.650
10 0 59440  76782.000000  0    2549377.307  -3998318.841   4987276.522
10 0 59440  76902.000000  0    2002854.063  -3525768.658   5558818.196
10 0 59440  77022.000000  0    1430251.436  -2981851.099   6032592.526
10 0 59440  77142.000000  0     842747.428  -2375725.230   6400306.014
10 0 59440  77262.000000  0     251600.011  -1717823.034   6655529.534
10 0 59440  77382.000000  0    -332068.805  -1019666.999   6793804.255
10 0 59440  77502.000000  0    -897481.056   -293666.420   6812715.365
10 0 59440  77622.000000  0   -1434400.858    447103.586   6711931.330
10 0 59440  77742.000000  0   -1933319.121   1189137.008   6493209.234
10 0 59440  77862.000000  0   -2385621.867   1918742.188   6160366.091
10 0 59440  77982.000000  0   -2783739.814   2622293.807   5719216.514
10 0 59440  78102.000000  0   -3121276.903   3286488.400   5177477.528
10 0 59440  78222.000000  0   -3393116.595   3898598.476   4544640.041
10 0 59440  78342.000000  0   -3595502.715   4446721.211   3831808.107
10 0 59440  78462.000000  0   -3726093.084   4920016.203   3051507.435
10 0 59440  78582.000000  0   -3783984.461   5308926.929   2217465.534
10 0 59440  78702.000000  0   -3769707.522   5605379.048   1344367.130
10 0 59440  78822.000000  0   -3685192.438   5802951.655    447591.446
10 0 59440  78942.000000  0   -3533706.842   5897018.990   -457065.535
10 0 59440  79062.000000  0   -3319765.107   5884855.677  -1353679.732
10 0 59440  79182.000000  0   -3049012.159   5765702.278  -2226489.850
10 0 59440  79302.000000  0   -2728082.818   5540789.420  -3060182.343
10 0 59440  79422.000000  0   -2364444.628   5213323.096  -3840163.334
10 0 59440  79542.000000  0   -1966227.736   4788430.810  -4552815.369
10 0 59440  79662.000000  0   -1542044.826   4273070.154  -5185730.891
10 0 59440  79782.000000  0   -1100807.589   3675905.747  -5727920.787
10 0 59440  79902.000000  0    -651541.815   3007155.444  -6169997.187
10 0 59440  80022.000000  0    -203205.047   2278408.137  -6504325.515
10 0 59440  80142.000000  0     235488.278   1502419.674  -6725144.069
10 0 59440  80262.000000  0     656231.295    692890.199  -6828653.990
10 0 59440  80382.000000  0    1051278.268   -135774.364  -6813077.778
10 0 59440  80502.000000  0    1413583.520   -968714.116  -6678685.789
10 0 59440  80622.000000  0    1736923.489  -1790874.908  -6427790.593
10 0 59440  80742.000000  0    2016001.752  -2587273.009  -6064711.860
10 0 59440  80862.000000  0    2246535.490  -3343262.663  -5595711.124
10 0 59440  80982.000000  0    2425322.264  -4044805.187  -5028895.355
10 0 59440  81102.000000  0    2550285.000  -4678731.246  -4374085.904
10 0 59440  81222.000000  0    2620494.298  -5232990.639  -3642658.914
10 0 59440  81342.000000  0    2636167.669  -5696888.871  -2847357.722
10 0 59440  81462.000000  0    2598645.637  -6061303.147  -2002076.723
10 0 59440  81582.000000  0    2510345.027  -6318872.708  -1121621.404
10 0 59440  81702.000000  0    2374688.941  -6464157.857   -221446.292
10 0 59440  81822.000000  0    2196014.421  -6493760.434    682622.505
10 0 59440  81942.000000  0    1979461.509  -6406405.525   1574672.167
10 0 59440  82062.000000  0    1730845.866  -6202980.871   2438993.499
10 0 59440  82182.000000  0    1456516.685  -5886530.378   3260366.468
10 0 59440  82302.000000  0    1163205.903  -5462205.100   4024334.750
10 0 59440  82422.000000  0     857871.447  -4937172.408   4717463.937
10 0 59440  82542.000000  0     547538.753  -4320487.452   5327579.675
10 0 59440  82662.000000  0     239143.655  -3622927.162   5843981.237
10 0 59440  82782.000000  0     -60617.872  -2856791.479   6257625.105
10 0 59440  82902.000000  0    -345431.336  -2035679.014   6561276.188
10 0 59440  83022.000000  0    -609493.414  -1174242.293   6749627.745
10 0 59440  83142.000000  0    -847627.785   -287924.619   6819389.726
10 0 59440  83262.000000  0   -1055385.283    607317.883   6769343.339
10 0 59440  83382.000000  0   -1229126.524   1495303.371   6600360.742
10 0 59440  83502.000000  0   -1366085.336   2359915.961   6315390.682
10 0 59440  83622.000000  0   -1464412.935   3185397.998   5919410.461
10 0 59440  83742.000000  0   -1523202.062   3956638.599   5419343.876
10 0 59440  83862.000000  0   -1542489.756   4659453.544   4823946.674
10 0 59440  83982.000000  0   -1523240.127   5280852.962   4143659.410
10 0 59440  84102.000000  0   -1467305.914   5809289.641   3390428.068
10 0 59440  84222.000000  0   -1377371.120   6234882.524   2577496.734
10 0 59440  84342.000000  0   -1256875.726   6549611.979   1719173.635
10 0 59440  84462.000000  0   -1109920.933   6747479.754    830574.538
10 0 59440  84582.000000  0    -941160.075   6824628.887    -72649.693
10 0 59440  84702.000000  0    -755677.479   6779423.127   -974596.659
10 0 59440  84822.000000  0    -558857.636   6612480.371  -1859403.636
10 0 59440  84942.000000  0    -356249.281   6326657.332  -2711535.506
10 0 59440  85062.000000  0    -153428.415   5926990.524  -3516061.872
10 0 59440  85182.000000  0      44137.334   5420596.549  -4258920.270
10 0 59440  85302.000000  0     231219.960   4816533.255  -4927160.826
10 0 59440  85422.000000  0     402954.606   4125625.725  -5509167.110
10 0 59440  85542.000000  0     554952.582   3360261.771  -5994850.415
99
